{
  "type": "FeatureCollection",
  "features": [
    {
      "type": "Feature",
      "properties": {
        "norad_id": 41890,
        "name": "CYGFM07",
        "group": "weather",
        "lat": -24.73743289397868,
        "lon": 154.71002066880718,
        "alt_km": 417.9347919304664,
        "timestamp": "2025-12-26T03:50:11.730113+00:00",
        "meta_object_name": "CYGFM07",
        "meta_object_id": "2016-078G",
        "meta_epoch": "2025-12-25T02:08:18.875904",
        "meta_mean_motion": 15.50522977,
        "meta_eccentricity": 0.00093938,
        "meta_inclination": 34.9478,
        "meta_ra_of_asc_node": 300.4548,
        "meta_arg_of_pericenter": 319.9198,
        "meta_mean_anomaly": 40.083,
        "meta_ephemeris_type": 0,
        "meta_classification_type": "U",
        "meta_norad_cat_id": 41890,
        "meta_element_set_no": 999,
        "meta_rev_at_epoch": 50187,
        "meta_bstar": 0.00040403981,
        "meta_mean_motion_dot": 0.00023861,
        "meta_mean_motion_ddot": 0,
        "tle_line1": "1 41890U 16078G   25359.08910736  .00023861  00000+0  40404-3 0  9996",
        "tle_line2": "2 41890  34.9478 300.4548 0009393 319.9198  40.0830 15.50522977501876"
      },
      "geometry": {
        "type": "Point",
        "coordinates": [
          154.71002066880718,
          -24.73743289397868
        ]
      }
    },
    {
      "type": "Feature",
      "properties": {
        "norad_id": 41891,
        "name": "CYGFM03",
        "group": "weather",
        "lat": 28.620239776508797,
        "lon": -13.244210836298217,
        "alt_km": 410.97743974004607,
        "timestamp": "2025-12-26T03:50:11.730124+00:00",
        "meta_object_name": "CYGFM03",
        "meta_object_id": "2016-078H",
        "meta_epoch": "2025-12-25T01:19:20.476704",
        "meta_mean_motion": 15.504147,
        "meta_eccentricity": 0.00092269,
        "meta_inclination": 34.9431,
        "meta_ra_of_asc_node": 302.6047,
        "meta_arg_of_pericenter": 306.7099,
        "meta_mean_anomaly": 53.2776,
        "meta_ephemeris_type": 0,
        "meta_classification_type": "U",
        "meta_norad_cat_id": 41891,
        "meta_element_set_no": 999,
        "meta_rev_at_epoch": 50184,
        "meta_bstar": 0.00039735587,
        "meta_mean_motion_dot": 0.00023373,
        "meta_mean_motion_ddot": 0,
        "tle_line1": "1 41891U 16078H   25359.05509811  .00023373  00000+0  39736-3 0  9996",
        "tle_line2": "2 41891  34.9431 302.6047 0009226 306.7099  53.2776 15.50414700501849"
      },
      "geometry": {
        "type": "Point",
        "coordinates": [
          -13.244210836298217,
          28.620239776508797
        ]
      }
    },
    {
      "type": "Feature",
      "properties": {
        "norad_id": 43010,
        "name": "FENGYUN 3D",
        "group": "weather",
        "lat": 21.86508821910391,
        "lon": 150.31462856361983,
        "alt_km": 824.9984337416281,
        "timestamp": "2025-12-26T03:50:11.730135+00:00",
        "meta_object_name": "FENGYUN 3D",
        "meta_object_id": "2017-072A",
        "meta_epoch": "2025-12-25T22:01:18.028992",
        "meta_mean_motion": 14.19686378,
        "meta_eccentricity": 0.0001578,
        "meta_inclination": 98.9915,
        "meta_ra_of_asc_node": 326.4258,
        "meta_arg_of_pericenter": 146.152,
        "meta_mean_anomaly": 213.9756,
        "meta_ephemeris_type": 0,
        "meta_classification_type": "U",
        "meta_norad_cat_id": 43010,
        "meta_element_set_no": 999,
        "meta_rev_at_epoch": 42040,
        "meta_bstar": -8.2764e-05,
        "meta_mean_motion_dot": -2.21e-06,
        "meta_mean_motion_ddot": 0,
        "tle_line1": "1 43010U 17072A   25359.91756978 -.00000221  00000+0 -82764-4 0  9998",
        "tle_line2": "2 43010  98.9915 326.4258 0001578 146.1520 213.9756 14.19686378420407"
      },
      "geometry": {
        "type": "Point",
        "coordinates": [
          150.31462856361983,
          21.86508821910391
        ]
      }
    },
    {
      "type": "Feature",
      "properties": {
        "norad_id": 43013,
        "name": "NOAA 20 (JPSS-1)",
        "group": "weather",
        "lat": -56.86800517951546,
        "lon": -50.02188425029243,
        "alt_km": 834.848395774562,
        "timestamp": "2025-12-26T03:50:11.730146+00:00",
        "meta_object_name": "NOAA 20 (JPSS-1)",
        "meta_object_id": "2017-073A",
        "meta_epoch": "2025-12-25T19:39:02.687040",
        "meta_mean_motion": 14.19529169,
        "meta_eccentricity": 0.0002068,
        "meta_inclination": 98.7616,
        "meta_ra_of_asc_node": 295.9734,
        "meta_arg_of_pericenter": 68.5404,
        "meta_mean_anomaly": 291.5993,
        "meta_ephemeris_type": 0,
        "meta_classification_type": "U",
        "meta_norad_cat_id": 43013,
        "meta_element_set_no": 999,
        "meta_rev_at_epoch": 41987,
        "meta_bstar": 6.5243e-05,
        "meta_mean_motion_dot": 9.3e-07,
        "meta_mean_motion_ddot": 0,
        "tle_line1": "1 43013U 17073A   25359.81878110  .00000093  00000+0  65243-4 0  9992",
        "tle_line2": "2 43013  98.7616 295.9734 0002068  68.5404 291.5993 14.19529169419876"
      },
      "geometry": {
        "type": "Point",
        "coordinates": [
          -50.02188425029243,
          -56.86800517951546
        ]
      }
    },
    {
      "type": "Feature",
      "properties": {
        "norad_id": 43226,
        "name": "GOES 17",
        "group": "weather",
        "lat": -0.20017048828204417,
        "lon": 62.97565358445228,
        "alt_km": 35796.717357899455,
        "timestamp": "2025-12-26T03:50:11.730159+00:00",
        "meta_object_name": "GOES 17",
        "meta_object_id": "2018-022A",
        "meta_epoch": "2025-12-25T12:38:22.122816",
        "meta_mean_motion": 1.00271863,
        "meta_eccentricity": 0.0003138,
        "meta_inclination": 0.4887,
        "meta_ra_of_asc_node": 89.0412,
        "meta_arg_of_pericenter": 191.0543,
        "meta_mean_anomaly": 274.2832,
        "meta_ephemeris_type": 0,
        "meta_classification_type": "U",
        "meta_norad_cat_id": 43226,
        "meta_element_set_no": 999,
        "meta_rev_at_epoch": 2868,
        "meta_bstar": 0,
        "meta_mean_motion_dot": -1.61e-06,
        "meta_mean_motion_ddot": 0,
        "tle_line1": "1 43226U 18022A   25359.52664494 -.00000161  00000+0  00000+0 0  9991",
        "tle_line2": "2 43226   0.4887  89.0412 0003138 191.0543 274.2832  1.00271863 28688"
      },
      "geometry": {
        "type": "Point",
        "coordinates": [
          62.97565358445228,
          -0.20017048828204417
        ]
      }
    },
    {
      "type": "Feature",
      "properties": {
        "norad_id": 43491,
        "name": "FENGYUN 2H",
        "group": "weather",
        "lat": 1.2572458501377728,
        "lon": -128.19709317036316,
        "alt_km": 35776.47615466137,
        "timestamp": "2025-12-26T03:50:11.730171+00:00",
        "meta_object_name": "FENGYUN 2H",
        "meta_object_id": "2018-050A",
        "meta_epoch": "2025-12-25T19:20:18.558240",
        "meta_mean_motion": 1.00270337,
        "meta_eccentricity": 0.0002432,
        "meta_inclination": 2.5824,
        "meta_ra_of_asc_node": 81.1909,
        "meta_arg_of_pericenter": 166.7726,
        "meta_mean_anomaly": 216.0076,
        "meta_ephemeris_type": 0,
        "meta_classification_type": "U",
        "meta_norad_cat_id": 43491,
        "meta_element_set_no": 999,
        "meta_rev_at_epoch": 2770,
        "meta_bstar": 0,
        "meta_mean_motion_dot": -1.09e-06,
        "meta_mean_motion_ddot": 0,
        "tle_line1": "1 43491U 18050A   25359.80577035 -.00000109  00000+0  00000+0 0  9993",
        "tle_line2": "2 43491   2.5824  81.1909 0002432 166.7726 216.0076  1.00270337 27709"
      },
      "geometry": {
        "type": "Point",
        "coordinates": [
          -128.19709317036316,
          1.2572458501377728
        ]
      }
    },
    {
      "type": "Feature",
      "properties": {
        "norad_id": 43689,
        "name": "METOP-C",
        "group": "weather",
        "lat": 2.215610712813177,
        "lon": -121.9384285155917,
        "alt_km": 823.3600659486283,
        "timestamp": "2025-12-26T03:50:11.730183+00:00",
        "meta_object_name": "METOP-C",
        "meta_object_id": "2018-087A",
        "meta_epoch": "2025-12-25T18:33:25.013088",
        "meta_mean_motion": 14.21489247,
        "meta_eccentricity": 6.01e-05,
        "meta_inclination": 98.6911,
        "meta_ra_of_asc_node": 57.3419,
        "meta_arg_of_pericenter": 14.4615,
        "meta_mean_anomaly": 345.658,
        "meta_ephemeris_type": 0,
        "meta_classification_type": "U",
        "meta_norad_cat_id": 43689,
        "meta_element_set_no": 999,
        "meta_rev_at_epoch": 37019,
        "meta_bstar": 8.0397e-05,
        "meta_mean_motion_dot": 1.32e-06,
        "meta_mean_motion_ddot": 0,
        "tle_line1": "1 43689U 18087A   25359.77320617  .00000132  00000+0  80397-4 0  9997",
        "tle_line2": "2 43689  98.6911  57.3419 0000601  14.4615 345.6580 14.21489247370196"
      },
      "geometry": {
        "type": "Point",
        "coordinates": [
          -121.9384285155917,
          2.215610712813177
        ]
      }
    }
  ]
}